OBJECT_NAME,OBJECT_ID,EPOCH,MEAN_MOTION,ECCENTRICITY,INCLINATION,RA_OF_ASC_NODE,ARG_OF_PERICENTER,MEAN_ANOMALY,EPHEMERIS_TYPE,CLASSIFICATION_TYPE,NORAD_CAT_ID,ELEMENT_SET_NO,REV_AT_EPOCH,BSTAR,MEAN_MOTION_DOT,MEAN_MOTION_DDOT
STARLINK-2559,2021-036Y,2026-06-14T18:48:58.178016,15.35328612,.00018149,53.1583,343.1907,257.0596,103.0204,0,U,48298,999,28329,.13555623E-2,.47092E-3,0
STARLINK-2557,2021-036Z,2026-06-14T05:40:05.113920,15.31697342,.0001156,53.1615,346.2097,84.2024,275.9109,0,U,48299,999,28320,.70218E-4,.1814E-4,0
STARLINK-2538,2021-036AA,2026-06-15T05:27:19.069056,15.31706190,.00011672,53.1598,354.4185,86.5717,273.5418,0,U,48300,999,28317,.18768684E-3,.5464E-4,0
STARLINK-2537,2021-036AB,2026-06-14T19:17:07.879488,15.31710504,.00020235,53.1610,359.4031,90.8429,269.2804,0,U,48301,999,28305,.18851106E-4,.219E-5,0
STARLINK-2530,2021-036AD,2026-06-14T18:49:46.665696,15.31701875,.00013902,53.1621,356.7650,103.4578,256.6579,0,U,48303,999,28309,-.21273573E-4,-.1025E-4,0
STARLINK-2524,2021-036AE,2026-06-14T20:20:30.423840,15.31711662,.00012485,53.1606,6.9296,106.7004,253.4135,0,U,48304,999,28294,.34878814E-3,.10477E-3,0
STARLINK-2519,2021-036AF,2026-06-14T20:00:28.751040,15.31695867,.00012142,53.1610,7.5763,92.2383,267.8758,0,U,48305,999,28293,.17505607E-3,.507E-4,0
STARLINK-2523,2021-036AG,2026-06-14T20:27:14.196960,15.31707154,.00010052,53.1593,7.0246,75.9875,284.1238,0,U,48306,999,28294,.67424056E-4,.1728E-4,0
STARLINK-2517,2021-036AK,2026-06-14T19:15:54.719424,15.30201854,.00012621,53.1598,357.0644,94.2953,265.8192,0,U,48309,999,28309,.18693455E-3,.5181E-4,0
STARLINK-2536,2021-036AL,2026-06-14T20:38:41.569440,15.31715924,.00011898,53.1604,359.3906,75.8744,284.2390,0,U,48310,999,28306,.1313387E-3,.3715E-4,0
STARLINK-2534,2021-036AM,2026-06-14T20:17:03.949440,15.31704975,.00011985,53.1601,356.6986,89.1339,270.9800,0,U,48311,999,28310,.10475678E-3,.2887E-4,0
STARLINK-2061,2021-036AN,2026-06-14T19:36:45.089856,15.31709692,.00010746,53.1595,356.5783,93.3502,266.7623,0,U,48312,999,28310,.35321146E-3,.10614E-3,0
STARLINK-2549,2021-036AQ,2026-06-14T19:03:40.176864,15.31710974,.00015173,53.1627,359.1580,84.6141,275.5034,0,U,48314,999,28305,.17792994E-3,.5162E-4,0
STARLINK-2506,2021-036AR,2026-06-14T21:00:46.569600,15.31700059,.0001162,53.1608,6.8259,90.3674,269.7460,0,U,48315,999,28294,-.11327E-4,-.717E-5,0
STARLINK-2507,2021-036AS,2026-06-14T20:54:03.145536,15.31706707,.00016078,53.1602,6.8294,130.6594,229.4547,0,U,48316,999,28294,.2583945E-4,.437E-5,0
STARLINK-2513,2021-036AT,2026-06-15T05:34:01.999776,15.31701145,.00012215,53.1592,354.4134,91.3607,268.7534,0,U,48317,999,28316,.12201195E-3,.3423E-4,0
STARLINK-2509,2021-036AU,2026-06-13T21:25:42.286656,15.31689878,.0001143,53.1595,14.3353,85.5375,274.5757,0,U,48318,999,28276,-.87269E-4,-.3071E-4,0
STARLINK-2512,2021-036AV,2026-06-14T20:41:32.919648,15.31703318,.00012853,53.1597,9.0945,90.8670,269.2479,0,U,48319,999,28292,.92256749E-4,.2499E-4,0
STARLINK-2029,2021-036AW,2026-06-14T19:48:23.283936,15.31700667,.00007595,53.1623,9.5714,115.9031,244.2049,0,U,48320,999,28291,.76453489E-4,.2008E-4,0
STARLINK-2457,2021-036AX,2026-06-14T20:21:23.417280,15.31711768,.00010681,53.1586,9.0872,71.5305,288.5813,0,U,48321,999,28292,.55054911E-4,.1344E-4,0
STARLINK-2515,2021-036AZ,2026-06-14T20:07:58.644480,15.31704656,.00010205,53.1608,9.1068,87.0890,273.0228,0,U,48323,999,28292,.19458784E-3,.5679E-4,0
STARLINK-2495,2021-036BB,2026-06-14T20:14:41.881920,15.31709356,.00011801,53.1606,9.2138,82.8826,277.2310,0,U,48325,999,28292,.41810828E-4,.933E-5,0
STARLINK-2498,2021-036BC,2026-06-14T20:01:45.274656,15.31723793,.00009562,53.1601,9.1890,67.9464,292.1639,0,U,48326,999,28292,.72377408E-3,.22178E-3,0
STARLINK-2502,2021-036BD,2026-06-14T19:55:02.990208,15.31705676,.00011286,53.1603,9.2121,74.2040,285.9086,0,U,48327,999,28292,.85776507E-4,.2298E-4,0
STARLINK-2504,2021-036BE,2026-06-14T21:08:21.761952,15.31704150,.0001083,53.1606,8.8545,89.2293,270.8833,0,U,48328,999,28292,.7201E-4,.187E-4,0
STARLINK-2510,2021-036BF,2026-06-14T21:02:07.922112,15.31704229,.0001219,53.1600,8.8697,83.8628,276.2512,0,U,48329,999,28293,.47434E-4,.1107E-4,0
STARLINK-2501,2021-036BG,2026-06-14T22:02:37.801248,15.31693867,.0001224,53.1594,9.1687,92.0158,268.0983,0,U,48330,999,28293,.36022E-4,.753E-5,0
STARLINK-2514,2021-036BH,2026-06-14T20:08:07.647360,15.33136170,.00014857,53.1599,9.4227,231.8223,128.2645,0,U,48331,999,28292,.13881428E-2,.44962E-3,0
STARLINK-2518,2021-036BK,2026-06-14T19:14:45.994272,15.31700758,.00012052,53.1609,9.2651,92.8673,267.2467,0,U,48333,999,28292,.59674604E-4,.1487E-4,0
STARLINK-2470,2021-036BL,2026-06-14T20:41:59.417664,15.31696681,.00008577,53.1576,8.9756,66.4389,293.6702,0,U,48334,999,28293,-.71009856E-4,-.2567E-4,0
YAOGAN-34 01,2021-037A,2026-06-15T06:24:04.386816,13.45433393,.00404894,63.4005,151.3098,351.4522,8.5810,0,U,48340,999,25174,.6152132E-4,-.54E-6,0
STARLINK-2613,2021-038A,2026-06-14T13:49:22.168128,15.31691239,.0001295,53.1595,267.4208,94.1074,266.0075,0,U,48353,999,28192,-.17453E-4,-.907E-5,0
STARLINK-2674,2021-038B,2026-06-14T23:19:51.668256,15.31699424,.00012223,53.1592,265.6566,66.9466,293.1664,0,U,48354,999,28198,.5914843E-5,-.182E-5,0
STARLINK-2635,2021-038C,2026-06-14T13:35:56.202144,15.31705632,.000128,53.1582,267.4390,55.8297,304.2826,0,U,48355,999,28192,-.65042E-4,-.2383E-4,0
STARLINK-2637,2021-038D,2026-06-14T12:35:36.001536,15.31689370,.00018097,53.1623,267.9320,89.2315,270.8894,0,U,48356,999,28191,-.7535186E-4,-.2702E-4,0
STARLINK-2636,2021-038E,2026-06-14T13:29:16.338624,15.31713562,.000111,53.1596,267.5162,90.1928,269.9200,0,U,48357,999,28192,.46836E-3,.14202E-3,0
STARLINK-2624,2021-038F,2026-06-15T00:20:14.408160,15.31699055,.00010146,53.1587,265.3729,82.5846,277.5270,0,U,48358,999,28198,.47347738E-4,.1104E-4,0
STARLINK-2628,2021-038G,2026-06-14T23:26:37.673952,15.31697784,.00013165,53.1615,265.8909,98.5458,261.5692,0,U,48359,999,28197,.18814134E-4,.219E-5,0
STARLINK-2622,2021-038H,2026-06-15T00:13:32.582496,15.31707672,.00009991,53.1594,265.4238,59.8242,300.2858,0,U,48360,999,28198,.11684302E-3,.3263E-4,0
STARLINK-2591,2021-038J,2026-06-15T00:06:48.383424,15.31710382,.00014401,53.1602,265.4403,57.4131,302.7009,0,U,48361,999,28198,.13932512E-4,.67E-6,0
STARLINK-2578,2021-038K,2026-06-14T13:42:39.383424,15.31694252,.0001125,53.1586,267.4446,88.1844,271.9286,0,U,48362,999,28192,-.39025E-4,-.1576E-4,0
STARLINK-2611,2021-038M,2026-06-14T12:11:29.059872,15.31685355,.00010797,53.1573,257.4032,72.1189,287.9930,0,U,48364,999,28206,-.21336041E-4,-.1027E-4,0
STARLINK-2608,2021-038N,2026-06-14T22:49:04.886400,15.31697260,.00008465,53.1564,255.4000,102.8933,257.2163,0,U,48365,999,28213,.42280317E-4,.947E-5,0
STARLINK-2643,2021-038Q,2026-06-14T12:51:17.249184,15.31697851,.00009623,53.1600,254.8683,48.6631,311.4453,0,U,48367,999,28209,-.2782518E-5,-.451E-5,0
STARLINK-2623,2021-038R,2026-06-14T23:22:44.615136,15.31692550,.00011763,53.1609,255.8004,86.4932,273.6204,0,U,48368,999,28212,-.32649257E-4,-.1378E-4,0
STARLINK-2621,2021-038T,2026-06-14T23:02:29.349024,15.31696982,.00012749,53.1601,255.2575,85.1056,275.0091,0,U,48370,999,28212,.48214965E-4,.1131E-4,0
STARLINK-2589,2021-038U,2026-06-14T23:15:56.107296,15.31694935,.00012531,53.1600,255.3516,86.8806,273.2339,0,U,48371,999,28212,.8870786E-5,-.9E-6,0
STARLINK-2609,2021-038W,2026-06-14T12:37:52.864320,15.31696333,.00011765,53.1586,255.0028,77.3600,282.7533,0,U,48373,999,28209,-.6772409E-5,-.575E-5,0
STARLINK-2604,2021-038X,2026-06-14T22:42:22.967424,15.31714776,.00012531,53.1580,255.3475,108.7488,251.3650,0,U,48374,999,28212,.30625726E-3,.9154E-4,0
STARLINK-2603,2021-038Y,2026-06-14T22:42:51.012864,15.31697378,.00013148,53.1600,255.3694,88.4172,271.6980,0,U,48375,999,28212,-.4713458E-4,-.1827E-4,0
STARLINK-2610,2021-038Z,2026-06-15T05:10:32.174688,15.67806739,.00020629,53.1578,249.2312,16.4534,343.6550,0,U,48376,999,28223,.57186883E-3,.6399E-3,0
STARLINK-2499,2021-038AA,2026-06-14T22:35:40.142976,15.31688042,.0001296,53.1586,255.4449,91.0233,269.0917,0,U,48377,999,28212,.26409E-3,.7835E-4,0
STARLINK-2526,2021-038AB,2026-06-14T22:55:49.742112,15.31695909,.00013815,53.1609,255.5373,93.6567,266.4593,0,U,48378,999,28212,-.33501349E-4,-.1404E-4,0
STARLINK-2612,2021-038AC,2026-06-14T12:44:39.520608,15.31702709,.00008859,53.1594,255.2441,86.0426,274.0677,0,U,48379,999,28209,.54339448E-4,.1322E-4,0
STARLINK-2614,2021-038AD,2026-06-14T12:58:02.502336,15.31697636,.0001258,53.1586,255.0807,88.2129,271.9016,0,U,48380,999,28209,-.14388575E-4,-.812E-5,0
STARLINK-2630,2021-038AE,2026-06-14T23:29:28.050432,15.31679086,.00013855,53.1616,255.7609,93.1331,266.9829,0,U,48381,999,28212,-.85663717E-4,-.3021E-4,0
STARLINK-2585,2021-038AF,2026-06-14T12:45:31.490208,15.31696500,.00009985,53.1599,257.2815,70.6926,289.4184,0,U,48382,999,28206,.2855526E-4,.521E-5,0
STARLINK-2598,2021-038AJ,2026-06-14T22:28:28.822080,15.31694943,.0001149,53.1590,253.0307,93.8155,266.2978,0,U,48385,999,28338,-.28156E-4,-.1238E-4,0
STARLINK-2606,2021-038AK,2026-06-14T23:28:25.260960,15.31695499,.00012178,53.1590,252.9579,77.4207,282.6931,0,U,48386,999,28215,-.15103853E-4,-.834E-5,0
STARLINK-2594,2021-038AM,2026-06-14T12:37:22.270944,15.31708803,.00010988,53.1580,254.8452,78.5585,281.5540,0,U,48388,999,28209,-.58759066E-4,-.2188E-4,0
STARLINK-2586,2021-038AP,2026-06-14T22:03:58.090176,15.31714967,.0001164,53.1583,240.3462,81.8465,278.2668,0,U,48390,999,28355,.25568E-3,.7581E-4,0
STARLINK-2607,2021-038AQ,2026-06-14T11:46:04.148256,15.31703208,.00010699,53.1580,242.6958,75.5207,284.5913,0,U,48391,999,28348,.23499291E-4,.364E-5,0
STARLINK-2605,2021-038AR,2026-06-14T21:37:05.173248,15.31696464,.0001175,53.1600,240.3263,97.8815,262.2320,0,U,48392,999,28355,.91494E-5,-.81E-6,0
STARLINK-2574,2021-038AU,2026-06-14T10:59:56.969664,15.31690068,.00012187,53.1582,244.7448,90.5732,269.5409,0,U,48395,999,28345,-.40554218E-4,-.1623E-4,0
